{"fetched_at":"2026-03-30T13:17:50Z","count":15418,"tles":[{"name":"STARLINK-3640","line1":"1 51988U 22025AJ  26087.90590863  .00000548  00000+0  52498-4 0  9993","line2":"2 51988  53.2176 312.8584 0001333  86.9331 273.1814 15.08836222223963","category":"Starlink"}]}